{
  "type": "FeatureCollection",
  "features": [
    {
      "type": "Feature",
      "geometry": {
        "type": "LineString",
        "coordinates": [
          [
            -74.116436,
            4.60432
          ],
          [
            -74.117321,
            4.603321
          ],
          [
            -74.115669,
            4.600749
          ],
          [
            -74.11502,
            4.600513
          ],
          [
            -74.113664,
            4.60238
          ],
          [
            -74.116436,
            4.604313
          ]
        ]
      },
      "properties": {
        "plotId": "1",
        "external_id": null,
        "Area": 1.194000005722046,
        "Geometry_type": "LineString",
        "Country": "COL",
        "ProducerCountry": "CO",
        "Admin_Level_1": "Cundinamarca",
        "Centroid_lon": -74.115554,
        "Centroid_lat": 4.602452,
        "Unit": "ha",
        "In_waterbody": false,
        "EUFO_2020": 0.0,
        "GLAD_Primary": 0.0,
        "TMF_undist": 0.0,
        "GFC_TC_2020": 0.15700000524520874,
        "Forest_FDaP": 0.0,
        "ESA_TC_2020": 0.21799999475479126,
        "ForTy_forest_2020": 0.0,
        "TMF_plant": 0.0,
        "Oil_palm_Descals": 0.0,
        "Oil_palm_FDaP": 0.0,
        "Coffee_FDaP": 0.0,
        "Cocoa_FDaP": 0.0,
        "Cocoa_ETH": 0.0,
        "Rubber_FDaP": 0.0,
        "Rubber_RBGE": 0.0,
        "ForTy_tree_crops_2020": 0.0,
        "Soy_Song_2020": 0.0,
        "TMF_def_2000": 0.0,
        "TMF_def_2001": 0.0,
        "TMF_def_2002": 0.0,
        "TMF_def_2003": 0.0,
        "TMF_def_2004": 0.0,
        "TMF_def_2005": 0.0,
        "TMF_def_2006": 0.0,
        "TMF_def_2007": 0.0,
        "TMF_def_2008": 0.0,
        "TMF_def_2009": 0.0,
        "TMF_def_2010": 0.0,
        "TMF_def_2011": 0.0,
        "TMF_def_2012": 0.0,
        "TMF_def_2013": 0.0,
        "TMF_def_2014": 0.0,
        "TMF_def_2015": 0.0,
        "TMF_def_2016": 0.0,
        "TMF_def_2017": 0.0,
        "TMF_def_2018": 0.0,
        "TMF_def_2019": 0.0,
        "TMF_def_2020": 0.0,
        "TMF_def_2021": 0.0,
        "TMF_def_2022": 0.0,
        "TMF_def_2023": 0.0,
        "TMF_def_2024": 0.0,
        "TMF_def_2025": 0.0,
        "TMF_deg_2000": 0.0,
        "TMF_deg_2001": 0.0,
        "TMF_deg_2002": 0.0,
        "TMF_deg_2003": 0.0,
        "TMF_deg_2004": 0.0,
        "TMF_deg_2005": 0.0,
        "TMF_deg_2006": 0.0,
        "TMF_deg_2007": 0.0,
        "TMF_deg_2008": 0.0,
        "TMF_deg_2009": 0.0,
        "TMF_deg_2010": 0.0,
        "TMF_deg_2011": 0.0,
        "TMF_deg_2012": 0.0,
        "TMF_deg_2013": 0.0,
        "TMF_deg_2014": 0.0,
        "TMF_deg_2015": 0.0,
        "TMF_deg_2016": 0.0,
        "TMF_deg_2017": 0.0,
        "TMF_deg_2018": 0.0,
        "TMF_deg_2019": 0.0,
        "TMF_deg_2020": 0.0,
        "TMF_deg_2021": 0.0,
        "TMF_deg_2022": 0.0,
        "TMF_deg_2023": 0.0,
        "TMF_deg_2024": 0.0,
        "TMF_deg_2025": 0.0,
        "GFC_loss_year_2001": 0.0,
        "GFC_loss_year_2002": 0.0,
        "GFC_loss_year_2003": 0.0,
        "GFC_loss_year_2004": 0.0,
        "GFC_loss_year_2005": 0.0,
        "GFC_loss_year_2006": 0.0,
        "GFC_loss_year_2007": 0.0,
        "GFC_loss_year_2008": 0.0,
        "GFC_loss_year_2009": 0.0,
        "GFC_loss_year_2010": 0.0,
        "GFC_loss_year_2011": 0.0,
        "GFC_loss_year_2012": 0.0,
        "GFC_loss_year_2013": 0.0,
        "GFC_loss_year_2014": 0.0,
        "GFC_loss_year_2015": 0.0,
        "GFC_loss_year_2016": 0.0,
        "GFC_loss_year_2017": 0.0,
        "GFC_loss_year_2018": 0.0,
        "GFC_loss_year_2019": 0.0,
        "GFC_loss_year_2020": 0.0,
        "GFC_loss_year_2021": 0.0,
        "GFC_loss_year_2022": 0.0,
        "GFC_loss_year_2023": 0.0,
        "GFC_loss_year_2024": 0.0,
        "GFC_loss_year_2025": 0.0,
        "RADD_year_2019": 0.0,
        "RADD_year_2020": 0.0,
        "RADD_year_2021": 0.0,
        "RADD_year_2022": 0.0,
        "RADD_year_2023": 0.0,
        "RADD_year_2024": 0.0,
        "RADD_year_2025": 0.0,
        "RADD_year_2026": 0.0,
        "GLAD-L_year_2017": 0.0,
        "GLAD-L_year_2018": 0.0,
        "GLAD-L_year_2019": 0.0,
        "GLAD-L_year_2020": 0.0,
        "GLAD-L_year_2021": 0.0,
        "GLAD-L_year_2022": 0.0,
        "GLAD-L_year_2023": 0.0,
        "GLAD-L_year_2025": 0.0,
        "GLAD-L_year_2026": 0.0,
        "GLAD-S2_year_2019": 0.0,
        "GLAD-S2_year_2020": 0.0,
        "GLAD-S2_year_2021": 0.0,
        "GLAD-S2_year_2022": 0.0,
        "GLAD-S2_year_2023": 0.0,
        "GLAD-S2_year_2024": 0.0,
        "GLAD-S2_year_2025": 0.0,
        "GLAD-S2_year_2026": 0.0,
        "ESA_fire_2001": 0.0,
        "ESA_fire_2002": 0.0,
        "ESA_fire_2003": 0.0,
        "ESA_fire_2004": 0.0,
        "ESA_fire_2005": 0.0,
        "ESA_fire_2006": 0.0,
        "ESA_fire_2007": 0.0,
        "ESA_fire_2008": 0.0,
        "ESA_fire_2009": 0.0,
        "ESA_fire_2010": 0.0,
        "ESA_fire_2011": 0.0,
        "ESA_fire_2012": 0.0,
        "ESA_fire_2013": 0.0,
        "ESA_fire_2014": 0.0,
        "ESA_fire_2015": 0.0,
        "ESA_fire_2016": 0.0,
        "ESA_fire_2017": 0.0,
        "ESA_fire_2018": 0.0,
        "ESA_fire_2019": 0.0,
        "ESA_fire_2020": 0.0,
        "MODIS_fire_2000": 0.0,
        "MODIS_fire_2001": 0.0,
        "MODIS_fire_2002": 0.0,
        "MODIS_fire_2003": 0.0,
        "MODIS_fire_2004": 0.0,
        "MODIS_fire_2005": 0.0,
        "MODIS_fire_2006": 0.0,
        "MODIS_fire_2007": 0.0,
        "MODIS_fire_2008": 0.0,
        "MODIS_fire_2009": 0.0,
        "MODIS_fire_2010": 0.0,
        "MODIS_fire_2011": 0.0,
        "MODIS_fire_2012": 0.0,
        "MODIS_fire_2013": 0.0,
        "MODIS_fire_2014": 0.0,
        "MODIS_fire_2015": 0.0,
        "MODIS_fire_2016": 0.0,
        "MODIS_fire_2017": 0.0,
        "MODIS_fire_2018": 0.0,
        "MODIS_fire_2019": 0.0,
        "MODIS_fire_2020": 0.0,
        "MODIS_fire_2021": 0.0,
        "MODIS_fire_2022": 0.0,
        "MODIS_fire_2023": 0.0,
        "MODIS_fire_2024": 0.0,
        "MODIS_fire_2025": 0.0,
        "MODIS_fire_2026": 0.0,
        "TMF_deg_before_2020": 0.0,
        "TMF_def_before_2020": 0.0,
        "GFC_loss_before_2020": 0.0,
        "ESA_fire_before_2020": 0.0,
        "MODIS_fire_before_2020": 0.0,
        "RADD_before_2020": 0.0,
        "GLAD-L_before_2020": 0.0,
        "GLAD-S2_before_2020": 0.0,
        "TMF_deg_after_2020": 0.0,
        "TMF_def_after_2020": 0.0,
        "GFC_loss_after_2020": 0.0,
        "MODIS_fire_after_2020": 0.0,
        "RADD_after_2020": 0.0,
        "GLAD-L_after_2020": 0.0,
        "GLAD-S2_after_2020": 0.0,
        "GFT_primary": 0.0,
        "IFL_2020": 0.0,
        "European_Primary_Forest": 0.0,
        "ForTy_primary_2020": 0.0,
        "GFT_naturally_regenerating": 0.0,
        "ForTy_nat_reg_2020": 0.0,
        "GFT_planted_plantation": 0.0,
        "IIASA_planted_plantation": 0.0,
        "ForTy_planted_2020": 0.0,
        "ForTy_plantation_2020": 0.0,
        "TMF_regrowth_2024": 0.06599999964237213,
        "ESRI_2024_TC": 0.0,
        "Oil_palm_2024_FDaP": 0.0,
        "Rubber_2024_FDaP": 0.0,
        "Coffee_FDaP_2024": 0.0,
        "Cocoa_2024_FDaP": 0.0,
        "ESRI_crop_gain_2020_2024": 0.0,
        "GFW_logging_before_2020": 0.0,
        "nCO_ideam_forest_2020": 0.0,
        "nCO_ideam_eufo_commission_2020": 0.0,
        "nBR_INPE_TC_primary_forest_Amazon_2020": 0.0,
        "nBR_INPE_TC_secondary_forest_Amazon_2020": 0.0,
        "nBR_BFS_primary_forest_Pantanal_2020": 0.0,
        "nBR_BFS_primary_forest_Caatinga_2020": 0.0,
        "nBR_BFS_primary_forest_AtlanticForest_2020": 0.0,
        "nBR_BFS_primary_forest_Pampa_2020": 0.0,
        "nBR_BFS_primary_and_secondary_forest_Cerrado_2020": 0.0,
        "nBR_MapBiomas_col9_forest_Brazil_2020": 0.0,
        "nBR_INPE_TCsilviculture_Amazon_2020": 0.0,
        "nBR_INPE_TCsilviculture_Cerrado_2020": 0.0,
        "nBR_MapBiomas_col9_silviculture_Brazil_2020": 0.0,
        "nBR_PRODES_deforestation_Brazil_before_2020": 0.0,
        "nBR_DETER_forestdegradation_Amazon_before_2020": 0.0,
        "nBR_PRODES_deforestation_Brazil_after_2020": 0.0,
        "nBR_DETER_forestdegradation_Amazon_after_2020": 0.0,
        "nBR_INPE_TCamz_cer_perennial_2020": 0.0,
        "nBR_MapBiomas_col9_coffee_2020": 0.0,
        "nBR_MapBiomas_col9_palmoil_2020": 0.0,
        "nBR_MapBiomas_col9_pc_2020": 0.0,
        "nBR_INPE_TCamz_cer_annual_2020": 0.0,
        "nBR_MapBiomas_col9_soy_2020": 0.0,
        "nBR_MapBiomas_col9_annual_crops_2020": 0.0,
        "nBR_INPE_TCamz_pasture_2020": 0.0,
        "nBR_INPE_TCcer_pasture_2020": 0.0,
        "nBR_MapBiomas_col9_pasture_2020": 0.0,
        "nCI_Cocoa_bnetd": 0.0,
        "nCM_Treecover_2020": 0.0,
        "whisp_processing_metadata": {
          "whisp_version": "3.0.0a15",
          "processing_timestamp_utc": "2026-07-26 00:42:40+0000"
        },
        "Ind_01_treecover": "no",
        "Ind_02_commodities": "no",
        "Ind_03_disturbance_before_2020": "no",
        "Ind_04_disturbance_after_2020": "no",
        "Ind_05_primary_2020": "no",
        "Ind_06_nat_reg_forest_2020": "no",
        "Ind_07_planted_plantations_2020": "no",
        "Ind_08_planted_plantations_after_2020": "no",
        "Ind_09_treecover_after_2020": "no",
        "Ind_10_agri_after_2020": "no",
        "Ind_11_logging_concession_before_2020": "no",
        "risk_pcrop": "low",
        "risk_acrop": "low",
        "risk_timber": "low"
      }
    },
    {
      "type": "Feature",
      "geometry": {
        "type": "LineString",
        "coordinates": [
          [
            -74.11212,
            4.602264
          ],
          [
            -74.112564,
            4.601614
          ],
          [
            -74.111118,
            4.600216
          ],
          [
            -74.110223,
            4.601172
          ],
          [
            -74.110581,
            4.601543
          ],
          [
            -74.110896,
            4.601186
          ],
          [
            -74.112122,
            4.602259
          ]
        ]
      },
      "properties": {
        "plotId": "2",
        "external_id": null,
        "Area": 0.7429999709129333,
        "Geometry_type": "LineString",
        "Country": "COL",
        "ProducerCountry": "CO",
        "Admin_Level_1": "Cundinamarca",
        "Centroid_lon": -74.111403,
        "Centroid_lat": 4.601253,
        "Unit": "ha",
        "In_waterbody": false,
        "EUFO_2020": 0.0,
        "GLAD_Primary": 0.0,
        "TMF_undist": 0.0,
        "GFC_TC_2020": 0.0,
        "Forest_FDaP": 0.0,
        "ESA_TC_2020": 0.08500000089406967,
        "ForTy_forest_2020": 0.0,
        "TMF_plant": 0.0,
        "Oil_palm_Descals": 0.0,
        "Oil_palm_FDaP": 0.0,
        "Coffee_FDaP": 0.0,
        "Cocoa_FDaP": 0.0,
        "Cocoa_ETH": 0.0,
        "Rubber_FDaP": 0.0,
        "Rubber_RBGE": 0.0,
        "ForTy_tree_crops_2020": 0.0,
        "Soy_Song_2020": 0.0,
        "TMF_def_2000": 0.0,
        "TMF_def_2001": 0.0,
        "TMF_def_2002": 0.0,
        "TMF_def_2003": 0.0,
        "TMF_def_2004": 0.0,
        "TMF_def_2005": 0.0,
        "TMF_def_2006": 0.0,
        "TMF_def_2007": 0.0,
        "TMF_def_2008": 0.0,
        "TMF_def_2009": 0.0,
        "TMF_def_2010": 0.0,
        "TMF_def_2011": 0.0,
        "TMF_def_2012": 0.0,
        "TMF_def_2013": 0.0,
        "TMF_def_2014": 0.0,
        "TMF_def_2015": 0.0,
        "TMF_def_2016": 0.0,
        "TMF_def_2017": 0.0,
        "TMF_def_2018": 0.0,
        "TMF_def_2019": 0.0,
        "TMF_def_2020": 0.0,
        "TMF_def_2021": 0.0,
        "TMF_def_2022": 0.0,
        "TMF_def_2023": 0.0,
        "TMF_def_2024": 0.0,
        "TMF_def_2025": 0.0,
        "TMF_deg_2000": 0.0,
        "TMF_deg_2001": 0.0,
        "TMF_deg_2002": 0.0,
        "TMF_deg_2003": 0.0,
        "TMF_deg_2004": 0.0,
        "TMF_deg_2005": 0.0,
        "TMF_deg_2006": 0.0,
        "TMF_deg_2007": 0.0,
        "TMF_deg_2008": 0.0,
        "TMF_deg_2009": 0.0,
        "TMF_deg_2010": 0.0,
        "TMF_deg_2011": 0.0,
        "TMF_deg_2012": 0.0,
        "TMF_deg_2013": 0.0,
        "TMF_deg_2014": 0.0,
        "TMF_deg_2015": 0.0,
        "TMF_deg_2016": 0.0,
        "TMF_deg_2017": 0.0,
        "TMF_deg_2018": 0.0,
        "TMF_deg_2019": 0.0,
        "TMF_deg_2020": 0.0,
        "TMF_deg_2021": 0.0,
        "TMF_deg_2022": 0.0,
        "TMF_deg_2023": 0.0,
        "TMF_deg_2024": 0.0,
        "TMF_deg_2025": 0.0,
        "GFC_loss_year_2001": 0.0,
        "GFC_loss_year_2002": 0.0,
        "GFC_loss_year_2003": 0.0,
        "GFC_loss_year_2004": 0.0,
        "GFC_loss_year_2005": 0.0,
        "GFC_loss_year_2006": 0.0,
        "GFC_loss_year_2007": 0.0,
        "GFC_loss_year_2008": 0.0,
        "GFC_loss_year_2009": 0.0,
        "GFC_loss_year_2010": 0.0,
        "GFC_loss_year_2011": 0.0,
        "GFC_loss_year_2012": 0.0,
        "GFC_loss_year_2013": 0.0,
        "GFC_loss_year_2014": 0.0,
        "GFC_loss_year_2015": 0.0,
        "GFC_loss_year_2016": 0.0,
        "GFC_loss_year_2017": 0.0,
        "GFC_loss_year_2018": 0.0,
        "GFC_loss_year_2019": 0.0,
        "GFC_loss_year_2020": 0.0,
        "GFC_loss_year_2021": 0.0,
        "GFC_loss_year_2022": 0.0,
        "GFC_loss_year_2023": 0.0,
        "GFC_loss_year_2024": 0.0,
        "GFC_loss_year_2025": 0.0,
        "RADD_year_2019": 0.0,
        "RADD_year_2020": 0.0,
        "RADD_year_2021": 0.0,
        "RADD_year_2022": 0.0,
        "RADD_year_2023": 0.0,
        "RADD_year_2024": 0.0,
        "RADD_year_2025": 0.0,
        "RADD_year_2026": 0.0,
        "GLAD-L_year_2017": 0.0,
        "GLAD-L_year_2018": 0.0,
        "GLAD-L_year_2019": 0.0,
        "GLAD-L_year_2020": 0.0,
        "GLAD-L_year_2021": 0.0,
        "GLAD-L_year_2022": 0.0,
        "GLAD-L_year_2023": 0.0,
        "GLAD-L_year_2025": 0.0,
        "GLAD-L_year_2026": 0.0,
        "GLAD-S2_year_2019": 0.0,
        "GLAD-S2_year_2020": 0.0,
        "GLAD-S2_year_2021": 0.0,
        "GLAD-S2_year_2022": 0.0,
        "GLAD-S2_year_2023": 0.0,
        "GLAD-S2_year_2024": 0.0,
        "GLAD-S2_year_2025": 0.0,
        "GLAD-S2_year_2026": 0.0,
        "ESA_fire_2001": 0.0,
        "ESA_fire_2002": 0.0,
        "ESA_fire_2003": 0.0,
        "ESA_fire_2004": 0.0,
        "ESA_fire_2005": 0.0,
        "ESA_fire_2006": 0.0,
        "ESA_fire_2007": 0.0,
        "ESA_fire_2008": 0.0,
        "ESA_fire_2009": 0.0,
        "ESA_fire_2010": 0.0,
        "ESA_fire_2011": 0.0,
        "ESA_fire_2012": 0.0,
        "ESA_fire_2013": 0.0,
        "ESA_fire_2014": 0.0,
        "ESA_fire_2015": 0.0,
        "ESA_fire_2016": 0.0,
        "ESA_fire_2017": 0.0,
        "ESA_fire_2018": 0.0,
        "ESA_fire_2019": 0.0,
        "ESA_fire_2020": 0.0,
        "MODIS_fire_2000": 0.0,
        "MODIS_fire_2001": 0.0,
        "MODIS_fire_2002": 0.0,
        "MODIS_fire_2003": 0.0,
        "MODIS_fire_2004": 0.0,
        "MODIS_fire_2005": 0.0,
        "MODIS_fire_2006": 0.0,
        "MODIS_fire_2007": 0.0,
        "MODIS_fire_2008": 0.0,
        "MODIS_fire_2009": 0.0,
        "MODIS_fire_2010": 0.0,
        "MODIS_fire_2011": 0.0,
        "MODIS_fire_2012": 0.0,
        "MODIS_fire_2013": 0.0,
        "MODIS_fire_2014": 0.0,
        "MODIS_fire_2015": 0.0,
        "MODIS_fire_2016": 0.0,
        "MODIS_fire_2017": 0.0,
        "MODIS_fire_2018": 0.0,
        "MODIS_fire_2019": 0.0,
        "MODIS_fire_2020": 0.0,
        "MODIS_fire_2021": 0.0,
        "MODIS_fire_2022": 0.0,
        "MODIS_fire_2023": 0.0,
        "MODIS_fire_2024": 0.0,
        "MODIS_fire_2025": 0.0,
        "MODIS_fire_2026": 0.0,
        "TMF_deg_before_2020": 0.0,
        "TMF_def_before_2020": 0.0,
        "GFC_loss_before_2020": 0.0,
        "ESA_fire_before_2020": 0.0,
        "MODIS_fire_before_2020": 0.0,
        "RADD_before_2020": 0.0,
        "GLAD-L_before_2020": 0.0,
        "GLAD-S2_before_2020": 0.0,
        "TMF_deg_after_2020": 0.0,
        "TMF_def_after_2020": 0.0,
        "GFC_loss_after_2020": 0.0,
        "MODIS_fire_after_2020": 0.0,
        "RADD_after_2020": 0.0,
        "GLAD-L_after_2020": 0.0,
        "GLAD-S2_after_2020": 0.0,
        "GFT_primary": 0.0,
        "IFL_2020": 0.0,
        "European_Primary_Forest": 0.0,
        "ForTy_primary_2020": 0.0,
        "GFT_naturally_regenerating": 0.0,
        "ForTy_nat_reg_2020": 0.0,
        "GFT_planted_plantation": 0.0,
        "IIASA_planted_plantation": 0.0,
        "ForTy_planted_2020": 0.0,
        "ForTy_plantation_2020": 0.0,
        "TMF_regrowth_2024": 0.0,
        "ESRI_2024_TC": 0.0,
        "Oil_palm_2024_FDaP": 0.0,
        "Rubber_2024_FDaP": 0.0,
        "Coffee_FDaP_2024": 0.0,
        "Cocoa_2024_FDaP": 0.0,
        "ESRI_crop_gain_2020_2024": 0.0,
        "GFW_logging_before_2020": 0.0,
        "nCO_ideam_forest_2020": 0.0,
        "nCO_ideam_eufo_commission_2020": 0.0,
        "nBR_INPE_TC_primary_forest_Amazon_2020": 0.0,
        "nBR_INPE_TC_secondary_forest_Amazon_2020": 0.0,
        "nBR_BFS_primary_forest_Pantanal_2020": 0.0,
        "nBR_BFS_primary_forest_Caatinga_2020": 0.0,
        "nBR_BFS_primary_forest_AtlanticForest_2020": 0.0,
        "nBR_BFS_primary_forest_Pampa_2020": 0.0,
        "nBR_BFS_primary_and_secondary_forest_Cerrado_2020": 0.0,
        "nBR_MapBiomas_col9_forest_Brazil_2020": 0.0,
        "nBR_INPE_TCsilviculture_Amazon_2020": 0.0,
        "nBR_INPE_TCsilviculture_Cerrado_2020": 0.0,
        "nBR_MapBiomas_col9_silviculture_Brazil_2020": 0.0,
        "nBR_PRODES_deforestation_Brazil_before_2020": 0.0,
        "nBR_DETER_forestdegradation_Amazon_before_2020": 0.0,
        "nBR_PRODES_deforestation_Brazil_after_2020": 0.0,
        "nBR_DETER_forestdegradation_Amazon_after_2020": 0.0,
        "nBR_INPE_TCamz_cer_perennial_2020": 0.0,
        "nBR_MapBiomas_col9_coffee_2020": 0.0,
        "nBR_MapBiomas_col9_palmoil_2020": 0.0,
        "nBR_MapBiomas_col9_pc_2020": 0.0,
        "nBR_INPE_TCamz_cer_annual_2020": 0.0,
        "nBR_MapBiomas_col9_soy_2020": 0.0,
        "nBR_MapBiomas_col9_annual_crops_2020": 0.0,
        "nBR_INPE_TCamz_pasture_2020": 0.0,
        "nBR_INPE_TCcer_pasture_2020": 0.0,
        "nBR_MapBiomas_col9_pasture_2020": 0.0,
        "nCI_Cocoa_bnetd": 0.0,
        "nCM_Treecover_2020": 0.0,
        "whisp_processing_metadata": {
          "whisp_version": "3.0.0a15",
          "processing_timestamp_utc": "2026-07-26 00:42:40+0000"
        },
        "Ind_01_treecover": "no",
        "Ind_02_commodities": "no",
        "Ind_03_disturbance_before_2020": "no",
        "Ind_04_disturbance_after_2020": "no",
        "Ind_05_primary_2020": "no",
        "Ind_06_nat_reg_forest_2020": "no",
        "Ind_07_planted_plantations_2020": "no",
        "Ind_08_planted_plantations_after_2020": "no",
        "Ind_09_treecover_after_2020": "no",
        "Ind_10_agri_after_2020": "no",
        "Ind_11_logging_concession_before_2020": "no",
        "risk_pcrop": "low",
        "risk_acrop": "low",
        "risk_timber": "low"
      }
    }
  ]
}